STARLINK-31905          
1 59896U 24100M   26068.15346707 -.00000595  00000+0 -12088-4 0  9992
2 59896  43.0007 125.0691 0001130 220.3311 139.7457 15.27574954101113
ION SCV-017             
1 63230U 25052W   26068.71648816  .00006457  00000+0  24539-3 0  9998
2 63230  97.4016 324.7516 0023746  44.9875 315.3282 15.26881798 54851
